CCSDS_OMM_VERS = 2.0
CREATION_DATE  = 
ORIGINATOR     = 

OBJECT_NAME    = TERRA
OBJECT_ID      = 1999-068A
CENTER_NAME    = EARTH
REF_FRAME      = TEME
TIME_SYSTEM    = UTC
MEAN_ELEMENT_THEORY = SGP/SGP4

EPOCH          = 2025-11-25T11:21:34.376256
MEAN_MOTION    = 14.60923250
ECCENTRICITY   = .0003125
INCLINATION    = 97.9771
RA_OF_ASC_NODE = 21.7889
ARG_OF_PERICENTER = 133.0175
MEAN_ANOMALY   = 281.9570

EPHEMERIS_TYPE = 0
CLASSIFICATION_TYPE = U
NORAD_CAT_ID   = 25994
ELEMENT_SET_NO = 999
REV_AT_EPOCH   = 37986
BSTAR          = .13838E-3
MEAN_MOTION_DOT = .633E-5
MEAN_MOTION_DDOT = 0

CCSDS_OMM_VERS = 2.0
CREATION_DATE  = 
ORIGINATOR     = 

OBJECT_NAME    = SL-16 R/B
OBJECT_ID      = 2000-006B
CENTER_NAME    = EARTH
REF_FRAME      = TEME
TIME_SYSTEM    = UTC
MEAN_ELEMENT_THEORY = SGP/SGP4

EPOCH          = 2025-11-25T09:03:04.804416
MEAN_MOTION    = 14.15802037
ECCENTRICITY   = .0017486
INCLINATION    = 71.0018
RA_OF_ASC_NODE = 317.1653
ARG_OF_PERICENTER = 333.1017
MEAN_ANOMALY   = 26.9198

EPHEMERIS_TYPE = 0
CLASSIFICATION_TYPE = U
NORAD_CAT_ID   = 26070
ELEMENT_SET_NO = 999
REV_AT_EPOCH   = 33379
BSTAR          = .11635E-3
MEAN_MOTION_DOT = .181E-5
MEAN_MOTION_DDOT = 0

CCSDS_OMM_VERS = 2.0
CREATION_DATE  = 
ORIGINATOR     = 

OBJECT_NAME    = TITAN 4B R/B
OBJECT_ID      = 2000-047B
CENTER_NAME    = EARTH
REF_FRAME      = TEME
TIME_SYSTEM    = UTC
MEAN_ELEMENT_THEORY = SGP/SGP4

EPOCH          = 2025-11-25T10:32:58.555968
MEAN_MOTION    = 15.08596907
ECCENTRICITY   = .0040388
INCLINATION    = 67.9903
RA_OF_ASC_NODE = 333.4363
ARG_OF_PERICENTER = 165.1213
MEAN_ANOMALY   = 195.1135

EPHEMERIS_TYPE = 0
CLASSIFICATION_TYPE = U
NORAD_CAT_ID   = 26474
ELEMENT_SET_NO = 999
REV_AT_EPOCH   = 37718
BSTAR          = .27651E-3
MEAN_MOTION_DOT = .4282E-4
MEAN_MOTION_DDOT = 0

CCSDS_OMM_VERS = 2.0
CREATION_DATE  = 
ORIGINATOR     = 

OBJECT_NAME    = ENVISAT
OBJECT_ID      = 2002-009A
CENTER_NAME    = EARTH
REF_FRAME      = TEME
TIME_SYSTEM    = UTC
MEAN_ELEMENT_THEORY = SGP/SGP4

EPOCH          = 2025-11-25T11:05:19.284000
MEAN_MOTION    = 14.38989730
ECCENTRICITY   = .000126
INCLINATION    = 98.3575
RA_OF_ASC_NODE = 280.6430
ARG_OF_PERICENTER = 80.6892
MEAN_ANOMALY   = 28.9770

EPHEMERIS_TYPE = 0
CLASSIFICATION_TYPE = U
NORAD_CAT_ID   = 27386
ELEMENT_SET_NO = 999
REV_AT_EPOCH   = 24418
BSTAR          = .72318E-4
MEAN_MOTION_DOT = .18E-5
MEAN_MOTION_DDOT = 0

CCSDS_OMM_VERS = 2.0
CREATION_DATE  = 
ORIGINATOR     = 

OBJECT_NAME    = IDEFIX & ARIANE 42P R/B
OBJECT_ID      = 2002-021B
CENTER_NAME    = EARTH
REF_FRAME      = TEME
TIME_SYSTEM    = UTC
MEAN_ELEMENT_THEORY = SGP/SGP4

EPOCH          = 2025-11-25T10:50:38.957856
MEAN_MOTION    = 14.30931507
ECCENTRICITY   = .0012573
INCLINATION    = 98.5763
RA_OF_ASC_NODE = 264.3694
ARG_OF_PERICENTER = 130.4171
MEAN_ANOMALY   = 229.8111

EPHEMERIS_TYPE = 0
CLASSIFICATION_TYPE = U
NORAD_CAT_ID   = 27422
ELEMENT_SET_NO = 999
REV_AT_EPOCH   = 22911
BSTAR          = .16422E-3
MEAN_MOTION_DOT = .388E-5
MEAN_MOTION_DDOT = 0

CCSDS_OMM_VERS = 2.0
CREATION_DATE  = 
ORIGINATOR     = 

OBJECT_NAME    = AQUA
OBJECT_ID      = 2002-022A
CENTER_NAME    = EARTH
REF_FRAME      = TEME
TIME_SYSTEM    = UTC
MEAN_ELEMENT_THEORY = SGP/SGP4

EPOCH          = 2025-11-25T12:26:09.506112
MEAN_MOTION    = 14.61748099
ECCENTRICITY   = .0000589
INCLINATION    = 98.4014
RA_OF_ASC_NODE = 290.1204
ARG_OF_PERICENTER = 87.2305
MEAN_ANOMALY   = 25.2348

EPHEMERIS_TYPE = 0
CLASSIFICATION_TYPE = U
NORAD_CAT_ID   = 27424
ELEMENT_SET_NO = 999
REV_AT_EPOCH   = 25351
BSTAR          = .28227E-3
MEAN_MOTION_DOT = .1358E-4
MEAN_MOTION_DDOT = 0

CCSDS_OMM_VERS = 2.0
CREATION_DATE  = 
ORIGINATOR     = 

OBJECT_NAME    = CZ-4B R/B
OBJECT_ID      = 2002-024C
CENTER_NAME    = EARTH
REF_FRAME      = TEME
TIME_SYSTEM    = UTC
MEAN_ELEMENT_THEORY = SGP/SGP4

EPOCH          = 2025-11-25T04:12:44.800128
MEAN_MOTION    = 14.14522607
ECCENTRICITY   = .0049431
INCLINATION    = 98.9025
RA_OF_ASC_NODE = 18.0065
ARG_OF_PERICENTER = 320.7205
MEAN_ANOMALY   = 107.4007

EPHEMERIS_TYPE = 0
CLASSIFICATION_TYPE = U
NORAD_CAT_ID   = 27432
ELEMENT_SET_NO = 999
REV_AT_EPOCH   = 21446
BSTAR          = .59638E-4
MEAN_MOTION_DOT = .71E-6
MEAN_MOTION_DDOT = 0

CCSDS_OMM_VERS = 2.0
CREATION_DATE  = 
ORIGINATOR     = 

OBJECT_NAME    = MIDORI II (ADEOS-II)
OBJECT_ID      = 2002-056A
CENTER_NAME    = EARTH
REF_FRAME      = TEME
TIME_SYSTEM    = UTC
MEAN_ELEMENT_THEORY = SGP/SGP4

EPOCH          = 2025-11-25T11:50:10.072032
MEAN_MOTION    = 14.29188367
ECCENTRICITY   = .0000811
INCLINATION    = 98.7611
RA_OF_ASC_NODE = 282.3614
ARG_OF_PERICENTER = 23.9079
MEAN_ANOMALY   = 336.2140

EPHEMERIS_TYPE = 0
CLASSIFICATION_TYPE = U
NORAD_CAT_ID   = 27597
ELEMENT_SET_NO = 999
REV_AT_EPOCH   = 19541
BSTAR          = .16238E-3
MEAN_MOTION_DOT = .367E-5
MEAN_MOTION_DDOT = 0

CCSDS_OMM_VERS = 2.0
CREATION_DATE  = 
ORIGINATOR     = 

OBJECT_NAME    = H-2A R/B
OBJECT_ID      = 2002-056E
CENTER_NAME    = EARTH
REF_FRAME      = TEME
TIME_SYSTEM    = UTC
MEAN_ELEMENT_THEORY = SGP/SGP4

EPOCH          = 2025-11-25T10:50:29.723424
MEAN_MOTION    = 14.33656560
ECCENTRICITY   = .007144
INCLINATION    = 98.3042
RA_OF_ASC_NODE = 288.8996
ARG_OF_PERICENTER = 111.7995
MEAN_ANOMALY   = 358.7901

EPHEMERIS_TYPE = 0
CLASSIFICATION_TYPE = U
NORAD_CAT_ID   = 27601
ELEMENT_SET_NO = 999
REV_AT_EPOCH   = 19917
BSTAR          = .14699E-3
MEAN_MOTION_DOT = .378E-5
MEAN_MOTION_DDOT = 0

CCSDS_OMM_VERS = 2.0
CREATION_DATE  = 
ORIGINATOR     = 

OBJECT_NAME    = CZ-4B R/B
OBJECT_ID      = 2003-049C
CENTER_NAME    = EARTH
REF_FRAME      = TEME
TIME_SYSTEM    = UTC
MEAN_ELEMENT_THEORY = SGP/SGP4

EPOCH          = 2025-11-25T11:18:09.802656
MEAN_MOTION    = 14.54886238
ECCENTRICITY   = .0048004
INCLINATION    = 98.6778
RA_OF_ASC_NODE = 315.3839
ARG_OF_PERICENTER = 188.4082
MEAN_ANOMALY   = 171.6315

EPHEMERIS_TYPE = 0
CLASSIFICATION_TYPE = U
NORAD_CAT_ID   = 28059
ELEMENT_SET_NO = 999
REV_AT_EPOCH   = 17144
BSTAR          = .12712E-3
MEAN_MOTION_DOT = .503E-5
MEAN_MOTION_DDOT = 0

CCSDS_OMM_VERS = 2.0
CREATION_DATE  = 
ORIGINATOR     = 

OBJECT_NAME    = CZ-2C R/B
OBJECT_ID      = 2004-012C
CENTER_NAME    = EARTH
REF_FRAME      = TEME
TIME_SYSTEM    = UTC
MEAN_ELEMENT_THEORY = SGP/SGP4

EPOCH          = 2025-11-25T10:12:45.196704
MEAN_MOTION    = 15.53912251
ECCENTRICITY   = .0017665
INCLINATION    = 97.7445
RA_OF_ASC_NODE = 20.6367
ARG_OF_PERICENTER = 337.4673
MEAN_ANOMALY   = 22.5802

EPHEMERIS_TYPE = 0
CLASSIFICATION_TYPE = U
NORAD_CAT_ID   = 28222
ELEMENT_SET_NO = 999
REV_AT_EPOCH   = 18803
BSTAR          = .63707E-3
MEAN_MOTION_DOT = .41372E-3
MEAN_MOTION_DDOT = 0

CCSDS_OMM_VERS = 2.0
CREATION_DATE  = 
ORIGINATOR     = 

OBJECT_NAME    = SL-16 R/B
OBJECT_ID      = 2004-021B
CENTER_NAME    = EARTH
REF_FRAME      = TEME
TIME_SYSTEM    = UTC
MEAN_ELEMENT_THEORY = SGP/SGP4

EPOCH          = 2025-11-25T10:30:58.150656
MEAN_MOTION    = 14.14581474
ECCENTRICITY   = .000609
INCLINATION    = 71.0011
RA_OF_ASC_NODE = 91.2709
ARG_OF_PERICENTER = 219.3616
MEAN_ANOMALY   = 140.7065

EPHEMERIS_TYPE = 0
CLASSIFICATION_TYPE = U
NORAD_CAT_ID   = 28353
ELEMENT_SET_NO = 999
REV_AT_EPOCH   = 10809
BSTAR          = .94733E-4
MEAN_MOTION_DOT = .134E-5
MEAN_MOTION_DDOT = 0

CCSDS_OMM_VERS = 2.0
CREATION_DATE  = 
ORIGINATOR     = 

OBJECT_NAME    = CZ-4B R/B
OBJECT_ID      = 2004-035C
CENTER_NAME    = EARTH
REF_FRAME      = TEME
TIME_SYSTEM    = UTC
MEAN_ELEMENT_THEORY = SGP/SGP4

EPOCH          = 2025-11-25T07:53:30.105024
MEAN_MOTION    = 15.26974775
ECCENTRICITY   = .0033017
INCLINATION    = 97.3627
RA_OF_ASC_NODE = 359.9083
ARG_OF_PERICENTER = 341.6236
MEAN_ANOMALY   = 18.3808

EPHEMERIS_TYPE = 0
CLASSIFICATION_TYPE = U
NORAD_CAT_ID   = 28415
ELEMENT_SET_NO = 999
REV_AT_EPOCH   = 16397
BSTAR          = .39402E-3
MEAN_MOTION_DOT = .10529E-3
MEAN_MOTION_DDOT = 0

CCSDS_OMM_VERS = 2.0
CREATION_DATE  = 
ORIGINATOR     = 

OBJECT_NAME    = CZ-2C R/B
OBJECT_ID      = 2004-046B
CENTER_NAME    = EARTH
REF_FRAME      = TEME
TIME_SYSTEM    = UTC
MEAN_ELEMENT_THEORY = SGP/SGP4

EPOCH          = 2025-11-25T08:36:34.924320
MEAN_MOTION    = 14.26929260
ECCENTRICITY   = .0140735
INCLINATION    = 98.1974
RA_OF_ASC_NODE = 245.8185
ARG_OF_PERICENTER = 103.2753
MEAN_ANOMALY   = 258.4168

EPHEMERIS_TYPE = 0
CLASSIFICATION_TYPE = U
NORAD_CAT_ID   = 28480
ELEMENT_SET_NO = 999
REV_AT_EPOCH   = 9362
BSTAR          = .10558E-3
MEAN_MOTION_DOT = .245E-5
MEAN_MOTION_DDOT = 0

CCSDS_OMM_VERS = 2.0
CREATION_DATE  = 
ORIGINATOR     = 

OBJECT_NAME    = ARIANE 5 R/B
OBJECT_ID      = 2004-049H
CENTER_NAME    = EARTH
REF_FRAME      = TEME
TIME_SYSTEM    = UTC
MEAN_ELEMENT_THEORY = SGP/SGP4

EPOCH          = 2025-11-25T09:40:12.484992
MEAN_MOTION    = 14.84955746
ECCENTRICITY   = .0083991
INCLINATION    = 98.2520
RA_OF_ASC_NODE = 129.0643
ARG_OF_PERICENTER = 329.8213
MEAN_ANOMALY   = 29.8176

EPHEMERIS_TYPE = 0
CLASSIFICATION_TYPE = U
NORAD_CAT_ID   = 28499
ELEMENT_SET_NO = 999
REV_AT_EPOCH   = 13031
BSTAR          = .12663E-3
MEAN_MOTION_DOT = .1083E-4
MEAN_MOTION_DDOT = 0

